BLUEBON                 
1 62688U 25009CH  26068.70316231  .00010452  00000+0  37313-3 0  9992
2 62688  97.4017 152.2033 0001193  43.3900 316.7434 15.29047253 63767
STARLINK-33645          
1 63412U 25065P   26068.50468627  .00031276  00000+0  11408-2 0  9998
2 63412  43.0048 111.3358 0002331 259.2184 100.8405 15.27593340 52777
